NORAD_CAT_ID,OBJECT_NAME,OBJECT_TYPE,EPOCH,MEAN_MOTION,ECCENTRICITY,INCLINATION,RA_OF_ASC_NODE,ARG_OF_PERICENTER,MEAN_ANOMALY,BSTAR,MEAN_MOTION_DOT,MEAN_MOTION_DDOT,TLE_LINE0,TLE_LINE1,TLE_LINE2,SEMIMAJOR_AXIS,PERIOD,APOGEE,PERIGEE,DECAYED
49771.0,STARLINK-3201,PAYLOAD,2024-07-19 14:05:23,15.08838879,0.0001312,53.2177,304.1155,81.4232,278.6909,0.00020824,3.028e-05,0.0,0 STARLINK-3201,1 49771U 21115AZ  24201.58708187  .00003028  00000-0  20824-3 0  9993,2 49771  53.2177 304.1155 0001312  81.4232 278.6909 15.08838879145380,6917.884,95.438,540.656,538.841,0.0
49771.0,STARLINK-3201,PAYLOAD,2024-07-20 13:56:10,15.08848462,0.0001131,53.2168,299.6519,83.5426,276.5695,0.00012771,1.746e-05,0.0,0 STARLINK-3201,1 49771U 21115AZ  24202.58067787  .00001746  00000-0  12771-3 0  9995,2 49771  53.2168 299.6519 0001131  83.5426 276.5695 15.08848462145534,6917.855,95.437,540.502,538.937,0.0
49771.0,STARLINK-3201,PAYLOAD,2024-07-21 12:11:35,15.08838707,0.0001341,53.2165,295.4915,87.3631,272.7514,-2.5691e-05,-6.97e-06,0.0,0 STARLINK-3201,1 49771U 21115AZ  24203.50805003 -.00000697  00000-0 -25691-4 0  9991,2 49771  53.2165 295.4915 0001341  87.3631 272.7514 15.08838707146785,6917.884,95.438,540.677,538.822,0.0
49771.0,STARLINK-3201,PAYLOAD,2024-07-21 13:46:58,15.08841258,0.0001393,53.2171,295.1956,87.559,272.5562,6.165e-06,-1.9e-06,0.0,0 STARLINK-3201,1 49771U 21115AZ  24203.57428785 -.00000190  00000-0  61650-5 0  9999,2 49771  53.2171 295.1956 0001393  87.5590 272.5562 15.08841258145681,6917.877,95.437,540.705,538.778,0.0
49771.0,STARLINK-3201,PAYLOAD,2024-07-22 10:26:59,15.08843962,0.0001467,53.2176,291.3225,76.2388,283.8768,2.0055e-05,3.1e-07,0.0,0 STARLINK-3201,1 49771U 21115AZ  24204.43540661  .00000031  00000-0  20055-4 0  9999,2 49771  53.2176 291.3225 0001467  76.2388 283.8768 15.08843962145817,6917.868,95.437,540.748,538.718,0.0
49771.0,STARLINK-3201,PAYLOAD,2024-07-23 11:53:08,15.08849394,0.0001247,53.2161,286.5685,94.814,265.2995,0.00012646,1.726e-05,0.0,0 STARLINK-3201,1 49771U 21115AZ  24205.49523913  .00001726  00000-0  12646-3 0  9995,2 49771  53.2161 286.5685 0001247  94.8140 265.2995 15.08849394147087,6917.852,95.437,540.579,538.854,0.0
49771.0,STARLINK-3201,PAYLOAD,2024-07-24 10:08:33,15.0883666,0.0001717,53.2175,282.3996,116.755,243.3618,-5.1043e-05,-1.1e-05,0.0,0 STARLINK-3201,1 49771U 21115AZ  24206.42261178 -.00001100  00000-0 -51043-4 0  9994,2 49771  53.2175 282.3996 0001717 116.7550 243.3618 15.08836660147229,6917.891,95.438,540.943,538.568,0.0
49771.0,STARLINK-3201,PAYLOAD,2024-07-24 14:54:43,15.08836074,0.0001686,53.2175,281.5076,116.4222,243.6943,-5.6147e-05,-1.181e-05,0.0,0 STARLINK-3201,1 49771U 21115AZ  24206.62133247 -.00001181  00000-0 -56147-4 0  9990,2 49771  53.2175 281.5076 0001686 116.4222 243.6943 15.08836074146140,6917.892,95.438,540.924,538.591,0.0
49771.0,STARLINK-3201,PAYLOAD,2024-07-25 09:59:19,15.08849542,0.0001371,53.2172,277.9428,100.8036,259.3111,4.9872e-05,5.06e-06,0.0,0 STARLINK-3201,1 49771U 21115AZ  24207.41620141  .00000506  00000-0  49872-4 0  9997,2 49771  53.2172 277.9428 0001371 100.8036 259.3111 15.08849542147379,6917.851,95.437,540.665,538.768,0.0
49771.0,STARLINK-3201,PAYLOAD,2024-07-25 14:45:28,15.08846563,0.0001575,53.2173,277.0483,116.5177,243.5976,0.00018406,2.643e-05,0.0,0 STARLINK-3201,1 49771U 21115AZ  24207.61491753  .00002643  00000-0  18406-3 0  9996,2 49771  53.2173 277.0483 0001575 116.5177 243.5976 15.08846563146292,6917.86,95.437,540.815,538.636,0.0
49771.0,STARLINK-3201,PAYLOAD,2024-07-26 05:03:58,15.0882941,9.66e-05,53.2164,274.3737,79.8658,280.2443,5.6422e-06,-1.98e-06,0.0,0 STARLINK-3201,1 49771U 21115AZ  24208.21109614 -.00000198  00000-0  56422-5 0  9991,2 49771  53.2164 274.3737 0000966  79.8658 280.2443 15.08829410147494,6917.913,95.438,540.446,539.109,0.0
49771.0,STARLINK-3201,PAYLOAD,2024-07-26 09:50:07,15.08830526,0.0001751,53.217,273.4747,110.3014,249.8166,0.0001149,1.541e-05,0.0,0 STARLINK-3201,1 49771U 21115AZ  24208.40981236  .00001541  00000-0  11490-3 0  9996,2 49771  53.2170 273.4747 0001751 110.3014 249.8166 15.08830526147529,6917.909,95.438,540.986,538.563,0.0
49771.0,STARLINK-3201,PAYLOAD,2024-07-26 13:00:54,15.08834841,0.0001352,53.2165,272.8855,92.2742,267.8405,6.0446e-05,6.74e-06,0.0,0 STARLINK-3201,1 49771U 21115AZ  24208.54229230  .00000674  00000-0  60446-4 0  9992,2 49771  53.2165 272.8855 0001352  92.2742 267.8405 15.08834841146438,6917.896,95.438,540.696,538.826,0.0
49771.0,STARLINK-3201,PAYLOAD,2024-07-26 20:57:49,15.08837745,0.0001377,53.2166,271.4002,89.2462,270.8688,5.879e-05,6.48e-06,0.0,0 STARLINK-3201,1 49771U 21115AZ  24208.87349145  .00000648  00000-0  58790-4 0  9996,2 49771  53.2166 271.4002 0001377  89.2462 270.8688 15.08837745146488,6917.887,95.438,540.705,538.8,0.0
49771.0,STARLINK-3201,PAYLOAD,2024-07-27 09:40:54,15.08847921,0.0001343,53.2162,269.0211,88.0266,272.088,2.7937e-06,-2.43e-06,0.0,0 STARLINK-3201,1 49771U 21115AZ  24209.40340646 -.00000243  00000-0  27937-5 0  9995,2 49771  53.2162 269.0211 0001343  88.0266 272.0880 15.08847921147678,6917.856,95.437,540.65,538.792,0.0
49771.0,STARLINK-3201,PAYLOAD,2024-07-27 12:51:40,15.08852052,0.0001355,53.2166,268.4257,88.876,271.2387,3.8664e-05,3.28e-06,0.0,0 STARLINK-3201,1 49771U 21115AZ  24209.53588240  .00000328  00000-0  38664-4 0  9994,2 49771  53.2166 268.4257 0001355  88.8760 271.2387 15.08852052146588,6917.844,95.437,540.646,538.771,0.0
49771.0,STARLINK-3201,PAYLOAD,2024-07-28 12:42:28,15.088386,0.000142,53.2161,263.9647,94.3045,265.8109,8.6509e-05,1.089e-05,0.0,0 STARLINK-3201,1 49771U 21115AZ  24210.52949201  .00001089  00000-0  86509-4 0  9999,2 49771  53.2161 263.9647 0001420  94.3045 265.8109 15.08838600147841,6917.885,95.438,540.732,538.767,0.0
49771.0,STARLINK-3201,PAYLOAD,2024-07-29 12:33:15,15.08844263,0.0001621,53.2166,259.5009,104.2638,255.8534,2.4975e-05,1.09e-06,0.0,0 STARLINK-3201,1 49771U 21115AZ  24211.52309146  .00000109  00000-0  24975-4 0  9999,2 49771  53.2166 259.5009 0001621 104.2638 255.8534 15.08844263146887,6917.867,95.437,540.854,538.611,0.0
49771.0,STARLINK-3201,PAYLOAD,2024-07-29 20:30:10,15.08849531,0.0001471,53.2166,258.0162,97.6757,262.4403,-7.3922e-05,-1.465e-05,0.0,0 STARLINK-3201,1 49771U 21115AZ  24211.85428943 -.00001465  00000-0 -73922-4 0  9996,2 49771  53.2166 258.0162 0001471  97.6757 262.4403 15.08849531148043,6917.851,95.437,540.734,538.699,0.0
49771.0,STARLINK-3201,PAYLOAD,2024-07-30 09:13:15,15.08842518,0.0001352,53.2154,255.6357,102.4045,257.7099,0.00010089,1.318e-05,0.0,0 STARLINK-3201,1 49771U 21115AZ  24212.38421128  .00001318  00000-0  10089-3 0  9992,2 49771  53.2154 255.6357 0001352 102.4045 257.7099 15.08842518147014,6917.873,95.437,540.673,538.802,0.0
49771.0,STARLINK-3201,PAYLOAD,2024-07-30 20:20:57,15.08841461,0.0001358,53.2151,253.5541,101.5151,258.5994,9.7161e-05,1.259e-05,0.0,0 STARLINK-3201,1 49771U 21115AZ  24212.84789244  .00001259  00000-0  97161-4 0  9990,2 49771  53.2151 253.5541 0001358 101.5151 258.5994 15.08841461148196,6917.876,95.437,540.68,538.801,0.0
49771.0,STARLINK-3201,PAYLOAD,2024-07-31 12:14:49,15.08840335,0.000136,53.2148,250.5809,99.6304,260.4842,5.8927e-05,6.5e-06,0.0,0 STARLINK-3201,1 49771U 21115AZ  24213.51029411  .00000650  00000-0  58927-4 0  9999,2 49771  53.2148 250.5809 0001360  99.6304 260.4842 15.08840335147187,6917.879,95.438,540.685,538.804,0.0
49771.0,STARLINK-3201,PAYLOAD,2024-08-01 12:05:35,15.08849973,0.0001346,53.2143,246.1227,87.8824,272.2322,0.00011448,1.535e-05,0.0,0 STARLINK-3201,1 49771U 21115AZ  24214.50388607  .00001535  00000-0  11448-3 0  9993,2 49771  53.2143 246.1227 0001346  87.8824 272.2322 15.08849973147335,6917.85,95.437,540.646,538.784,0.0
49771.0,STARLINK-3201,PAYLOAD,2024-08-02 11:56:23,15.08843587,0.0001362,53.2151,241.6611,85.2859,274.8289,7.7278e-05,9.42e-06,0.0,0 STARLINK-3201,1 49771U 21115AZ  24215.49749022  .00000942  00000-0  77278-4 0  9999,2 49771  53.2151 241.6611 0001362  85.2859 274.8289 15.08843587148593,6917.869,95.437,540.677,538.792,0.0
49771.0,STARLINK-3201,PAYLOAD,2024-08-02 18:17:55,15.08840172,0.0001392,53.2151,240.4707,86.3026,273.8126,4.9652e-05,5.02e-06,0.0,0 STARLINK-3201,1 49771U 21115AZ  24215.76245287  .00000502  00000-0  49652-4 0  9990,2 49771  53.2151 240.4707 0001392  86.3026 273.8126 15.08840172147525,6917.88,95.438,540.708,538.782,0.0
49771.0,STARLINK-3201,PAYLOAD,2024-08-03 08:36:24,15.08840161,0.0001315,53.2155,237.7959,85.2276,274.8866,-2.7802e-05,-7.3e-06,0.0,0 STARLINK-3201,1 49771U 21115AZ  24216.35861481 -.00000730  00000-0 -27802-4 0  9994,2 49771  53.2155 237.7959 0001315  85.2276 274.8866 15.08840161148720,6917.88,95.438,540.655,538.835,0.0
49771.0,STARLINK-3201,PAYLOAD,2024-08-03 18:08:43,15.08841522,0.0001348,53.2155,236.0117,84.3849,275.7297,-4.7767e-05,-1.048e-05,0.0,0 STARLINK-3201,1 49771U 21115AZ  24216.75605444 -.00001048  00000-0 -47767-4 0  9998,2 49771  53.2155 236.0117 0001348  84.3849 275.7297 15.08841522147673,6917.876,95.437,540.673,538.808,0.0
49771.0,STARLINK-3201,PAYLOAD,2024-08-04 08:27:11,15.08836134,0.0001346,53.2158,233.3374,90.4036,269.7111,1.3654e-05,-7.1e-07,0.0,0 STARLINK-3201,1 49771U 21115AZ  24217.35221800 -.00000071  00000-0  13654-4 0  9997,2 49771  53.2158 233.3374 0001346  90.4036 269.7111 15.08836134147766,6917.892,95.438,540.688,538.826,0.0
49771.0,STARLINK-3201,PAYLOAD,2024-08-04 17:59:30,15.0883702,0.0001358,53.216,231.5532,89.9299,270.1849,4.8513e-05,4.84e-06,0.0,0 STARLINK-3201,1 49771U 21115AZ  24217.74965755  .00000484  00000-0  48513-4 0  9993,2 49771  53.2160 231.5532 0001358  89.9299 270.1849 15.08837020148931,6917.889,95.438,540.694,538.815,0.0
49771.0,STARLINK-3201,PAYLOAD,2024-08-05 17:50:17,15.08834188,0.0001312,53.2148,227.0905,82.5716,277.5425,0.00016943,2.409e-05,0.0,0 STARLINK-3201,1 49771U 21115AZ  24218.74325778  .00002409  00000-0  16943-3 0  9999,2 49771  53.2148 227.0905 0001312  82.5716 277.5425 15.08834188147970,6917.898,95.438,540.671,538.856,0.0
